[{"OBJECT_NAME":"STARLINK-5441","OBJECT_ID":"2022-175AF","EPOCH":"2026-03-09T23:00:52.193952","MEAN_MOTION":15.08825404,"ECCENTRICITY":0.00010426,"INCLINATION":53.2176,"RA_OF_ASC_NODE":42.6299,"ARG_OF_PERICENTER":92.6743,"MEAN_ANOMALY":267.4369,"EPHEMERIS_TYPE":0,"CLASSIFICATION_TYPE":"U","NORAD_CAT_ID":54787,"ELEMENT_SET_NO":999,"REV_AT_EPOCH":17996,"BSTAR":-4.6085012e-5,"MEAN_MOTION_DOT":-1.021e-5,"MEAN_MOTION_DDOT":0},{"OBJECT_NAME":"PSLV R\/B","OBJECT_ID":"2010-035F","EPOCH":"2026-03-09T21:32:02.806944","MEAN_MOTION":15.11637156,"ECCENTRICITY":0.00120112,"INCLINATION":97.9796,"RA_OF_ASC_NODE":355.2302,"ARG_OF_PERICENTER":197.9598,"MEAN_ANOMALY":162.1208,"EPHEMERIS_TYPE":0,"CLASSIFICATION_TYPE":"U","NORAD_CAT_ID":36800,"ELEMENT_SET_NO":999,"REV_AT_EPOCH":85407,"BSTAR":0.00037264097,"MEAN_MOTION_DOT":6.275e-5,"MEAN_MOTION_DDOT":0}]
